ORBCOMM FM115           
1 41186U 15081H   24362.54505378  .00002772  00000+0  58348-3 0  9997
2 41186  46.9966 135.5376 0001274 279.6849  80.3894 14.61854218482658
ORBCOMM FM108           
1 41187U 15081J   24362.56844488  .00002022  00000+0  47591-3 0  9994
2 41187  47.0033 197.1433 0003012 227.8326 132.2303 14.57645767481755
ORBCOMM FM117           
1 41188U 15081K   24362.53515967  .00001416  00000+0  34437-3 0  9990
2 41188  46.9994 196.1252 0003293 240.7690 119.2866 14.57640112481799
ORBCOMM FM116           
1 41189U 15081L   24362.52500461  .00003256  00000+0  74368-3 0  9994
2 41189  47.0016 286.0177 0002384 332.8657  27.2104 14.57645637480607
